IRIDIUM 26              
1 24903U 97043A   25159.41315322  .00000384  00000+0  12249-3 0  9999
2 24903  86.3950 114.3082 0002465  88.3812 271.7668 14.37140015455486
IRIDIUM 22              
1 24907U 97043E   25159.40541040  .00000339  00000+0  11004-3 0  9998
2 24907  86.3954 117.8431 0002344  85.6549 274.4915 14.35953674455513
DUMMY MASS 1            
1 24925U 97048A   25159.39968953  .00000382  00000+0  39564-4 0  9997
2 24925  86.3344 139.3919 0007160 157.9613 202.1921 14.86980445503827
DUMMY MASS 2            
1 24926U 97048B   25159.42767463  .00000357  00000+0  36913-4 0  9992
2 24926  86.3346 140.9842 0007425 170.6097 189.5268 14.86732647503602
IRIDIUM 29              
1 24944U 97051A   25159.36178902  .00000405  00000+0  13141-3 0  9994
2 24944  86.3962 147.5984 0002143  85.1297 275.0144 14.36461645452003
IRIDIUM 33              
1 24946U 97051C   25159.40367079  .00000293  00000+0  96276-4 0  9992
2 24946  86.3876 146.8402 0010035 103.2032 257.0285 14.34888045451486
IRIDIUM 28              
1 24948U 97051E   25159.41081723  .00000320  00000+0  10046-3 0  9995
2 24948  86.3966 145.0997 0002753  93.0615 267.0897 14.37381116452581
IRIDIUM 36              
1 24967U 97056C   25159.30592094  .00000376  00000+0  11887-3 0  9992
2 24967  86.3988 176.7264 0002538  86.4133 273.7355 14.37604005450942
